<?xml version="1.0" encoding="UTF-8"?>
<!-- Generated by build-routes.mjs in this folder. Edit that file, not this one. -->
<gpx version="1.1" creator="hg-mono tools/e2e/native/routes/build-routes.mjs" xmlns="http://www.topografix.com/GPX/1/1">
  <metadata><name>restaurant-to-amina</name><desc>Dropoff leg: Bismillah Grill (1240 Danforth Ave) to Amina's home pin, by bike at about 5 m/s, east along Danforth then north. About 45 s.</desc></metadata>
  <trk>
    <name>restaurant-to-amina</name>
    <trkseg>
      <trkpt lat="43.681500" lon="-79.331000"><time>2026-10-10T16:00:00Z</time></trkpt>
      <trkpt lat="43.681500" lon="-79.331000"><time>2026-10-10T16:00:01Z</time></trkpt>
      <trkpt lat="43.681500" lon="-79.331000"><time>2026-10-10T16:00:02Z</time></trkpt>
      <trkpt lat="43.681500" lon="-79.331000"><time>2026-10-10T16:00:03Z</time></trkpt>
      <trkpt lat="43.681500" lon="-79.330938"><time>2026-10-10T16:00:04Z</time></trkpt>
      <trkpt lat="43.681500" lon="-79.330875"><time>2026-10-10T16:00:05Z</time></trkpt>
      <trkpt lat="43.681500" lon="-79.330813"><time>2026-10-10T16:00:06Z</time></trkpt>
      <trkpt lat="43.681500" lon="-79.330750"><time>2026-10-10T16:00:07Z</time></trkpt>
      <trkpt lat="43.681500" lon="-79.330687"><time>2026-10-10T16:00:08Z</time></trkpt>
      <trkpt lat="43.681500" lon="-79.330625"><time>2026-10-10T16:00:09Z</time></trkpt>
      <trkpt lat="43.681500" lon="-79.330562"><time>2026-10-10T16:00:10Z</time></trkpt>
      <trkpt lat="43.681500" lon="-79.330500"><time>2026-10-10T16:00:11Z</time></trkpt>
      <trkpt lat="43.681500" lon="-79.330438"><time>2026-10-10T16:00:12Z</time></trkpt>
      <trkpt lat="43.681500" lon="-79.330375"><time>2026-10-10T16:00:13Z</time></trkpt>
      <trkpt lat="43.681500" lon="-79.330313"><time>2026-10-10T16:00:14Z</time></trkpt>
      <trkpt lat="43.681500" lon="-79.330250"><time>2026-10-10T16:00:15Z</time></trkpt>
      <trkpt lat="43.681500" lon="-79.330187"><time>2026-10-10T16:00:16Z</time></trkpt>
      <trkpt lat="43.681500" lon="-79.330125"><time>2026-10-10T16:00:17Z</time></trkpt>
      <trkpt lat="43.681500" lon="-79.330062"><time>2026-10-10T16:00:18Z</time></trkpt>
      <trkpt lat="43.681500" lon="-79.330000"><time>2026-10-10T16:00:19Z</time></trkpt>
      <trkpt lat="43.681545" lon="-79.330000"><time>2026-10-10T16:00:20Z</time></trkpt>
      <trkpt lat="43.681591" lon="-79.330000"><time>2026-10-10T16:00:21Z</time></trkpt>
      <trkpt lat="43.681636" lon="-79.330000"><time>2026-10-10T16:00:22Z</time></trkpt>
      <trkpt lat="43.681682" lon="-79.330000"><time>2026-10-10T16:00:23Z</time></trkpt>
      <trkpt lat="43.681727" lon="-79.330000"><time>2026-10-10T16:00:24Z</time></trkpt>
      <trkpt lat="43.681773" lon="-79.330000"><time>2026-10-10T16:00:25Z</time></trkpt>
      <trkpt lat="43.681818" lon="-79.330000"><time>2026-10-10T16:00:26Z</time></trkpt>
      <trkpt lat="43.681864" lon="-79.330000"><time>2026-10-10T16:00:27Z</time></trkpt>
      <trkpt lat="43.681909" lon="-79.330000"><time>2026-10-10T16:00:28Z</time></trkpt>
      <trkpt lat="43.681955" lon="-79.330000"><time>2026-10-10T16:00:29Z</time></trkpt>
      <trkpt lat="43.682000" lon="-79.330000"><time>2026-10-10T16:00:30Z</time></trkpt>
      <trkpt lat="43.682045" lon="-79.330000"><time>2026-10-10T16:00:31Z</time></trkpt>
      <trkpt lat="43.682091" lon="-79.330000"><time>2026-10-10T16:00:32Z</time></trkpt>
      <trkpt lat="43.682136" lon="-79.330000"><time>2026-10-10T16:00:33Z</time></trkpt>
      <trkpt lat="43.682182" lon="-79.330000"><time>2026-10-10T16:00:34Z</time></trkpt>
      <trkpt lat="43.682227" lon="-79.330000"><time>2026-10-10T16:00:35Z</time></trkpt>
      <trkpt lat="43.682273" lon="-79.330000"><time>2026-10-10T16:00:36Z</time></trkpt>
      <trkpt lat="43.682318" lon="-79.330000"><time>2026-10-10T16:00:37Z</time></trkpt>
      <trkpt lat="43.682364" lon="-79.330000"><time>2026-10-10T16:00:38Z</time></trkpt>
      <trkpt lat="43.682409" lon="-79.330000"><time>2026-10-10T16:00:39Z</time></trkpt>
      <trkpt lat="43.682455" lon="-79.330000"><time>2026-10-10T16:00:40Z</time></trkpt>
      <trkpt lat="43.682500" lon="-79.330000"><time>2026-10-10T16:00:41Z</time></trkpt>
      <trkpt lat="43.682500" lon="-79.330000"><time>2026-10-10T16:00:42Z</time></trkpt>
      <trkpt lat="43.682500" lon="-79.330000"><time>2026-10-10T16:00:43Z</time></trkpt>
      <trkpt lat="43.682500" lon="-79.330000"><time>2026-10-10T16:00:44Z</time></trkpt>
      <trkpt lat="43.682500" lon="-79.330000"><time>2026-10-10T16:00:45Z</time></trkpt>
      <trkpt lat="43.682500" lon="-79.330000"><time>2026-10-10T16:00:46Z</time></trkpt>
    </trkseg>
  </trk>
</gpx>
