<?xml version="1.0" encoding="UTF-8"?>
<!-- Generated by build-routes.mjs in this folder. Edit that file, not this one. -->
<gpx version="1.1" creator="hg-mono tools/e2e/native/routes/build-routes.mjs" xmlns="http://www.topografix.com/GPX/1/1">
  <metadata><name>rider-long-stall</name><desc>Pickup leg, the devworld long route (route.go longStart, longBend, restaurantPoint) at about 6 m/s, with no fix at all for 120 s at the bend: longer than dispatch's 90 s freshness window. About 7 min.</desc></metadata>
  <trk>
    <name>rider-long-stall</name>
    <trkseg>
      <trkpt lat="43.681500" lon="-79.346000"><time>2026-10-10T16:00:00Z</time></trkpt>
      <trkpt lat="43.681500" lon="-79.346000"><time>2026-10-10T16:00:01Z</time></trkpt>
      <trkpt lat="43.681500" lon="-79.346000"><time>2026-10-10T16:00:02Z</time></trkpt>
      <trkpt lat="43.681500" lon="-79.346000"><time>2026-10-10T16:00:03Z</time></trkpt>
      <trkpt lat="43.681460" lon="-79.345950"><time>2026-10-10T16:00:04Z</time></trkpt>
      <trkpt lat="43.681421" lon="-79.345899"><time>2026-10-10T16:00:05Z</time></trkpt>
      <trkpt lat="43.681381" lon="-79.345849"><time>2026-10-10T16:00:06Z</time></trkpt>
      <trkpt lat="43.681342" lon="-79.345799"><time>2026-10-10T16:00:07Z</time></trkpt>
      <trkpt lat="43.681302" lon="-79.345748"><time>2026-10-10T16:00:08Z</time></trkpt>
      <trkpt lat="43.681263" lon="-79.345698"><time>2026-10-10T16:00:09Z</time></trkpt>
      <trkpt lat="43.681223" lon="-79.345647"><time>2026-10-10T16:00:10Z</time></trkpt>
      <trkpt lat="43.681183" lon="-79.345597"><time>2026-10-10T16:00:11Z</time></trkpt>
      <trkpt lat="43.681144" lon="-79.345547"><time>2026-10-10T16:00:12Z</time></trkpt>
      <trkpt lat="43.681104" lon="-79.345496"><time>2026-10-10T16:00:13Z</time></trkpt>
      <trkpt lat="43.681065" lon="-79.345446"><time>2026-10-10T16:00:14Z</time></trkpt>
      <trkpt lat="43.681025" lon="-79.345396"><time>2026-10-10T16:00:15Z</time></trkpt>
      <trkpt lat="43.680986" lon="-79.345345"><time>2026-10-10T16:00:16Z</time></trkpt>
      <trkpt lat="43.680946" lon="-79.345295"><time>2026-10-10T16:00:17Z</time></trkpt>
      <trkpt lat="43.680906" lon="-79.345245"><time>2026-10-10T16:00:18Z</time></trkpt>
      <trkpt lat="43.680867" lon="-79.345194"><time>2026-10-10T16:00:19Z</time></trkpt>
      <trkpt lat="43.680827" lon="-79.345144"><time>2026-10-10T16:00:20Z</time></trkpt>
      <trkpt lat="43.680788" lon="-79.345094"><time>2026-10-10T16:00:21Z</time></trkpt>
      <trkpt lat="43.680748" lon="-79.345043"><time>2026-10-10T16:00:22Z</time></trkpt>
      <trkpt lat="43.680709" lon="-79.344993"><time>2026-10-10T16:00:23Z</time></trkpt>
      <trkpt lat="43.680669" lon="-79.344942"><time>2026-10-10T16:00:24Z</time></trkpt>
      <trkpt lat="43.680629" lon="-79.344892"><time>2026-10-10T16:00:25Z</time></trkpt>
      <trkpt lat="43.680590" lon="-79.344842"><time>2026-10-10T16:00:26Z</time></trkpt>
      <trkpt lat="43.680550" lon="-79.344791"><time>2026-10-10T16:00:27Z</time></trkpt>
      <trkpt lat="43.680511" lon="-79.344741"><time>2026-10-10T16:00:28Z</time></trkpt>
      <trkpt lat="43.680471" lon="-79.344691"><time>2026-10-10T16:00:29Z</time></trkpt>
      <trkpt lat="43.680432" lon="-79.344640"><time>2026-10-10T16:00:30Z</time></trkpt>
      <trkpt lat="43.680392" lon="-79.344590"><time>2026-10-10T16:00:31Z</time></trkpt>
      <trkpt lat="43.680353" lon="-79.344540"><time>2026-10-10T16:00:32Z</time></trkpt>
      <trkpt lat="43.680313" lon="-79.344489"><time>2026-10-10T16:00:33Z</time></trkpt>
      <trkpt lat="43.680273" lon="-79.344439"><time>2026-10-10T16:00:34Z</time></trkpt>
      <trkpt lat="43.680234" lon="-79.344388"><time>2026-10-10T16:00:35Z</time></trkpt>
      <trkpt lat="43.680194" lon="-79.344338"><time>2026-10-10T16:00:36Z</time></trkpt>
      <trkpt lat="43.680155" lon="-79.344288"><time>2026-10-10T16:00:37Z</time></trkpt>
      <trkpt lat="43.680115" lon="-79.344237"><time>2026-10-10T16:00:38Z</time></trkpt>
      <trkpt lat="43.680076" lon="-79.344187"><time>2026-10-10T16:00:39Z</time></trkpt>
      <trkpt lat="43.680036" lon="-79.344137"><time>2026-10-10T16:00:40Z</time></trkpt>
      <trkpt lat="43.679996" lon="-79.344086"><time>2026-10-10T16:00:41Z</time></trkpt>
      <trkpt lat="43.679957" lon="-79.344036"><time>2026-10-10T16:00:42Z</time></trkpt>
      <trkpt lat="43.679917" lon="-79.343986"><time>2026-10-10T16:00:43Z</time></trkpt>
      <trkpt lat="43.679878" lon="-79.343935"><time>2026-10-10T16:00:44Z</time></trkpt>
      <trkpt lat="43.679838" lon="-79.343885"><time>2026-10-10T16:00:45Z</time></trkpt>
      <trkpt lat="43.679799" lon="-79.343835"><time>2026-10-10T16:00:46Z</time></trkpt>
      <trkpt lat="43.679759" lon="-79.343784"><time>2026-10-10T16:00:47Z</time></trkpt>
      <trkpt lat="43.679719" lon="-79.343734"><time>2026-10-10T16:00:48Z</time></trkpt>
      <trkpt lat="43.679680" lon="-79.343683"><time>2026-10-10T16:00:49Z</time></trkpt>
      <trkpt lat="43.679640" lon="-79.343633"><time>2026-10-10T16:00:50Z</time></trkpt>
      <trkpt lat="43.679601" lon="-79.343583"><time>2026-10-10T16:00:51Z</time></trkpt>
      <trkpt lat="43.679561" lon="-79.343532"><time>2026-10-10T16:00:52Z</time></trkpt>
      <trkpt lat="43.679522" lon="-79.343482"><time>2026-10-10T16:00:53Z</time></trkpt>
      <trkpt lat="43.679482" lon="-79.343432"><time>2026-10-10T16:00:54Z</time></trkpt>
      <trkpt lat="43.679442" lon="-79.343381"><time>2026-10-10T16:00:55Z</time></trkpt>
      <trkpt lat="43.679403" lon="-79.343331"><time>2026-10-10T16:00:56Z</time></trkpt>
      <trkpt lat="43.679363" lon="-79.343281"><time>2026-10-10T16:00:57Z</time></trkpt>
      <trkpt lat="43.679324" lon="-79.343230"><time>2026-10-10T16:00:58Z</time></trkpt>
      <trkpt lat="43.679284" lon="-79.343180"><time>2026-10-10T16:00:59Z</time></trkpt>
      <trkpt lat="43.679245" lon="-79.343129"><time>2026-10-10T16:01:00Z</time></trkpt>
      <trkpt lat="43.679205" lon="-79.343079"><time>2026-10-10T16:01:01Z</time></trkpt>
      <trkpt lat="43.679165" lon="-79.343029"><time>2026-10-10T16:01:02Z</time></trkpt>
      <trkpt lat="43.679126" lon="-79.342978"><time>2026-10-10T16:01:03Z</time></trkpt>
      <trkpt lat="43.679086" lon="-79.342928"><time>2026-10-10T16:01:04Z</time></trkpt>
      <trkpt lat="43.679047" lon="-79.342878"><time>2026-10-10T16:01:05Z</time></trkpt>
      <trkpt lat="43.679007" lon="-79.342827"><time>2026-10-10T16:01:06Z</time></trkpt>
      <trkpt lat="43.678968" lon="-79.342777"><time>2026-10-10T16:01:07Z</time></trkpt>
      <trkpt lat="43.678928" lon="-79.342727"><time>2026-10-10T16:01:08Z</time></trkpt>
      <trkpt lat="43.678888" lon="-79.342676"><time>2026-10-10T16:01:09Z</time></trkpt>
      <trkpt lat="43.678849" lon="-79.342626"><time>2026-10-10T16:01:10Z</time></trkpt>
      <trkpt lat="43.678809" lon="-79.342576"><time>2026-10-10T16:01:11Z</time></trkpt>
      <trkpt lat="43.678770" lon="-79.342525"><time>2026-10-10T16:01:12Z</time></trkpt>
      <trkpt lat="43.678730" lon="-79.342475"><time>2026-10-10T16:01:13Z</time></trkpt>
      <trkpt lat="43.678691" lon="-79.342424"><time>2026-10-10T16:01:14Z</time></trkpt>
      <trkpt lat="43.678651" lon="-79.342374"><time>2026-10-10T16:01:15Z</time></trkpt>
      <trkpt lat="43.678612" lon="-79.342324"><time>2026-10-10T16:01:16Z</time></trkpt>
      <trkpt lat="43.678572" lon="-79.342273"><time>2026-10-10T16:01:17Z</time></trkpt>
      <trkpt lat="43.678532" lon="-79.342223"><time>2026-10-10T16:01:18Z</time></trkpt>
      <trkpt lat="43.678493" lon="-79.342173"><time>2026-10-10T16:01:19Z</time></trkpt>
      <trkpt lat="43.678453" lon="-79.342122"><time>2026-10-10T16:01:20Z</time></trkpt>
      <trkpt lat="43.678414" lon="-79.342072"><time>2026-10-10T16:01:21Z</time></trkpt>
      <trkpt lat="43.678374" lon="-79.342022"><time>2026-10-10T16:01:22Z</time></trkpt>
      <trkpt lat="43.678335" lon="-79.341971"><time>2026-10-10T16:01:23Z</time></trkpt>
      <trkpt lat="43.678295" lon="-79.341921"><time>2026-10-10T16:01:24Z</time></trkpt>
      <trkpt lat="43.678255" lon="-79.341871"><time>2026-10-10T16:01:25Z</time></trkpt>
      <trkpt lat="43.678216" lon="-79.341820"><time>2026-10-10T16:01:26Z</time></trkpt>
      <trkpt lat="43.678176" lon="-79.341770"><time>2026-10-10T16:01:27Z</time></trkpt>
      <trkpt lat="43.678137" lon="-79.341719"><time>2026-10-10T16:01:28Z</time></trkpt>
      <trkpt lat="43.678097" lon="-79.341669"><time>2026-10-10T16:01:29Z</time></trkpt>
      <trkpt lat="43.678058" lon="-79.341619"><time>2026-10-10T16:01:30Z</time></trkpt>
      <trkpt lat="43.678018" lon="-79.341568"><time>2026-10-10T16:01:31Z</time></trkpt>
      <trkpt lat="43.677978" lon="-79.341518"><time>2026-10-10T16:01:32Z</time></trkpt>
      <trkpt lat="43.677939" lon="-79.341468"><time>2026-10-10T16:01:33Z</time></trkpt>
      <trkpt lat="43.677899" lon="-79.341417"><time>2026-10-10T16:01:34Z</time></trkpt>
      <trkpt lat="43.677860" lon="-79.341367"><time>2026-10-10T16:01:35Z</time></trkpt>
      <trkpt lat="43.677820" lon="-79.341317"><time>2026-10-10T16:01:36Z</time></trkpt>
      <trkpt lat="43.677781" lon="-79.341266"><time>2026-10-10T16:01:37Z</time></trkpt>
      <trkpt lat="43.677741" lon="-79.341216"><time>2026-10-10T16:01:38Z</time></trkpt>
      <trkpt lat="43.677701" lon="-79.341165"><time>2026-10-10T16:01:39Z</time></trkpt>
      <trkpt lat="43.677662" lon="-79.341115"><time>2026-10-10T16:01:40Z</time></trkpt>
      <trkpt lat="43.677622" lon="-79.341065"><time>2026-10-10T16:01:41Z</time></trkpt>
      <trkpt lat="43.677583" lon="-79.341014"><time>2026-10-10T16:01:42Z</time></trkpt>
      <trkpt lat="43.677543" lon="-79.340964"><time>2026-10-10T16:01:43Z</time></trkpt>
      <trkpt lat="43.677504" lon="-79.340914"><time>2026-10-10T16:01:44Z</time></trkpt>
      <trkpt lat="43.677464" lon="-79.340863"><time>2026-10-10T16:01:45Z</time></trkpt>
      <trkpt lat="43.677424" lon="-79.340813"><time>2026-10-10T16:01:46Z</time></trkpt>
      <trkpt lat="43.677385" lon="-79.340763"><time>2026-10-10T16:01:47Z</time></trkpt>
      <trkpt lat="43.677345" lon="-79.340712"><time>2026-10-10T16:01:48Z</time></trkpt>
      <trkpt lat="43.677306" lon="-79.340662"><time>2026-10-10T16:01:49Z</time></trkpt>
      <trkpt lat="43.677266" lon="-79.340612"><time>2026-10-10T16:01:50Z</time></trkpt>
      <trkpt lat="43.677227" lon="-79.340561"><time>2026-10-10T16:01:51Z</time></trkpt>
      <trkpt lat="43.677187" lon="-79.340511"><time>2026-10-10T16:01:52Z</time></trkpt>
      <trkpt lat="43.677147" lon="-79.340460"><time>2026-10-10T16:01:53Z</time></trkpt>
      <trkpt lat="43.677108" lon="-79.340410"><time>2026-10-10T16:01:54Z</time></trkpt>
      <trkpt lat="43.677068" lon="-79.340360"><time>2026-10-10T16:01:55Z</time></trkpt>
      <trkpt lat="43.677029" lon="-79.340309"><time>2026-10-10T16:01:56Z</time></trkpt>
      <trkpt lat="43.676989" lon="-79.340259"><time>2026-10-10T16:01:57Z</time></trkpt>
      <trkpt lat="43.676950" lon="-79.340209"><time>2026-10-10T16:01:58Z</time></trkpt>
      <trkpt lat="43.676910" lon="-79.340158"><time>2026-10-10T16:01:59Z</time></trkpt>
      <trkpt lat="43.676871" lon="-79.340108"><time>2026-10-10T16:02:00Z</time></trkpt>
      <trkpt lat="43.676831" lon="-79.340058"><time>2026-10-10T16:02:01Z</time></trkpt>
      <trkpt lat="43.676791" lon="-79.340007"><time>2026-10-10T16:02:02Z</time></trkpt>
      <trkpt lat="43.676752" lon="-79.339957"><time>2026-10-10T16:02:03Z</time></trkpt>
      <trkpt lat="43.676712" lon="-79.339906"><time>2026-10-10T16:02:04Z</time></trkpt>
      <trkpt lat="43.676673" lon="-79.339856"><time>2026-10-10T16:02:05Z</time></trkpt>
      <trkpt lat="43.676633" lon="-79.339806"><time>2026-10-10T16:02:06Z</time></trkpt>
      <trkpt lat="43.676594" lon="-79.339755"><time>2026-10-10T16:02:07Z</time></trkpt>
      <trkpt lat="43.676554" lon="-79.339705"><time>2026-10-10T16:02:08Z</time></trkpt>
      <trkpt lat="43.676514" lon="-79.339655"><time>2026-10-10T16:02:09Z</time></trkpt>
      <trkpt lat="43.676475" lon="-79.339604"><time>2026-10-10T16:02:10Z</time></trkpt>
      <trkpt lat="43.676435" lon="-79.339554"><time>2026-10-10T16:02:11Z</time></trkpt>
      <trkpt lat="43.676396" lon="-79.339504"><time>2026-10-10T16:02:12Z</time></trkpt>
      <trkpt lat="43.676356" lon="-79.339453"><time>2026-10-10T16:02:13Z</time></trkpt>
      <trkpt lat="43.676317" lon="-79.339403"><time>2026-10-10T16:02:14Z</time></trkpt>
      <trkpt lat="43.676277" lon="-79.339353"><time>2026-10-10T16:02:15Z</time></trkpt>
      <trkpt lat="43.676237" lon="-79.339302"><time>2026-10-10T16:02:16Z</time></trkpt>
      <trkpt lat="43.676198" lon="-79.339252"><time>2026-10-10T16:02:17Z</time></trkpt>
      <trkpt lat="43.676158" lon="-79.339201"><time>2026-10-10T16:02:18Z</time></trkpt>
      <trkpt lat="43.676119" lon="-79.339151"><time>2026-10-10T16:02:19Z</time></trkpt>
      <trkpt lat="43.676079" lon="-79.339101"><time>2026-10-10T16:02:20Z</time></trkpt>
      <trkpt lat="43.676040" lon="-79.339050"><time>2026-10-10T16:02:21Z</time></trkpt>
      <trkpt lat="43.676000" lon="-79.339000"><time>2026-10-10T16:02:22Z</time></trkpt>
      <trkpt lat="43.676000" lon="-79.339000"><time>2026-10-10T16:02:23Z</time></trkpt>
      <trkpt lat="43.676000" lon="-79.339000"><time>2026-10-10T16:02:24Z</time></trkpt>
      <trkpt lat="43.676000" lon="-79.339000"><time>2026-10-10T16:04:25Z</time></trkpt>
      <trkpt lat="43.676000" lon="-79.339000"><time>2026-10-10T16:04:26Z</time></trkpt>
      <trkpt lat="43.676037" lon="-79.338946"><time>2026-10-10T16:04:27Z</time></trkpt>
      <trkpt lat="43.676074" lon="-79.338892"><time>2026-10-10T16:04:28Z</time></trkpt>
      <trkpt lat="43.676111" lon="-79.338838"><time>2026-10-10T16:04:29Z</time></trkpt>
      <trkpt lat="43.676149" lon="-79.338784"><time>2026-10-10T16:04:30Z</time></trkpt>
      <trkpt lat="43.676186" lon="-79.338730"><time>2026-10-10T16:04:31Z</time></trkpt>
      <trkpt lat="43.676223" lon="-79.338676"><time>2026-10-10T16:04:32Z</time></trkpt>
      <trkpt lat="43.676260" lon="-79.338622"><time>2026-10-10T16:04:33Z</time></trkpt>
      <trkpt lat="43.676297" lon="-79.338568"><time>2026-10-10T16:04:34Z</time></trkpt>
      <trkpt lat="43.676334" lon="-79.338514"><time>2026-10-10T16:04:35Z</time></trkpt>
      <trkpt lat="43.676372" lon="-79.338459"><time>2026-10-10T16:04:36Z</time></trkpt>
      <trkpt lat="43.676409" lon="-79.338405"><time>2026-10-10T16:04:37Z</time></trkpt>
      <trkpt lat="43.676446" lon="-79.338351"><time>2026-10-10T16:04:38Z</time></trkpt>
      <trkpt lat="43.676483" lon="-79.338297"><time>2026-10-10T16:04:39Z</time></trkpt>
      <trkpt lat="43.676520" lon="-79.338243"><time>2026-10-10T16:04:40Z</time></trkpt>
      <trkpt lat="43.676557" lon="-79.338189"><time>2026-10-10T16:04:41Z</time></trkpt>
      <trkpt lat="43.676595" lon="-79.338135"><time>2026-10-10T16:04:42Z</time></trkpt>
      <trkpt lat="43.676632" lon="-79.338081"><time>2026-10-10T16:04:43Z</time></trkpt>
      <trkpt lat="43.676669" lon="-79.338027"><time>2026-10-10T16:04:44Z</time></trkpt>
      <trkpt lat="43.676706" lon="-79.337973"><time>2026-10-10T16:04:45Z</time></trkpt>
      <trkpt lat="43.676743" lon="-79.337919"><time>2026-10-10T16:04:46Z</time></trkpt>
      <trkpt lat="43.676780" lon="-79.337865"><time>2026-10-10T16:04:47Z</time></trkpt>
      <trkpt lat="43.676818" lon="-79.337811"><time>2026-10-10T16:04:48Z</time></trkpt>
      <trkpt lat="43.676855" lon="-79.337757"><time>2026-10-10T16:04:49Z</time></trkpt>
      <trkpt lat="43.676892" lon="-79.337703"><time>2026-10-10T16:04:50Z</time></trkpt>
      <trkpt lat="43.676929" lon="-79.337649"><time>2026-10-10T16:04:51Z</time></trkpt>
      <trkpt lat="43.676966" lon="-79.337595"><time>2026-10-10T16:04:52Z</time></trkpt>
      <trkpt lat="43.677003" lon="-79.337541"><time>2026-10-10T16:04:53Z</time></trkpt>
      <trkpt lat="43.677041" lon="-79.337486"><time>2026-10-10T16:04:54Z</time></trkpt>
      <trkpt lat="43.677078" lon="-79.337432"><time>2026-10-10T16:04:55Z</time></trkpt>
      <trkpt lat="43.677115" lon="-79.337378"><time>2026-10-10T16:04:56Z</time></trkpt>
      <trkpt lat="43.677152" lon="-79.337324"><time>2026-10-10T16:04:57Z</time></trkpt>
      <trkpt lat="43.677189" lon="-79.337270"><time>2026-10-10T16:04:58Z</time></trkpt>
      <trkpt lat="43.677226" lon="-79.337216"><time>2026-10-10T16:04:59Z</time></trkpt>
      <trkpt lat="43.677264" lon="-79.337162"><time>2026-10-10T16:05:00Z</time></trkpt>
      <trkpt lat="43.677301" lon="-79.337108"><time>2026-10-10T16:05:01Z</time></trkpt>
      <trkpt lat="43.677338" lon="-79.337054"><time>2026-10-10T16:05:02Z</time></trkpt>
      <trkpt lat="43.677375" lon="-79.337000"><time>2026-10-10T16:05:03Z</time></trkpt>
      <trkpt lat="43.677412" lon="-79.336946"><time>2026-10-10T16:05:04Z</time></trkpt>
      <trkpt lat="43.677449" lon="-79.336892"><time>2026-10-10T16:05:05Z</time></trkpt>
      <trkpt lat="43.677486" lon="-79.336838"><time>2026-10-10T16:05:06Z</time></trkpt>
      <trkpt lat="43.677524" lon="-79.336784"><time>2026-10-10T16:05:07Z</time></trkpt>
      <trkpt lat="43.677561" lon="-79.336730"><time>2026-10-10T16:05:08Z</time></trkpt>
      <trkpt lat="43.677598" lon="-79.336676"><time>2026-10-10T16:05:09Z</time></trkpt>
      <trkpt lat="43.677635" lon="-79.336622"><time>2026-10-10T16:05:10Z</time></trkpt>
      <trkpt lat="43.677672" lon="-79.336568"><time>2026-10-10T16:05:11Z</time></trkpt>
      <trkpt lat="43.677709" lon="-79.336514"><time>2026-10-10T16:05:12Z</time></trkpt>
      <trkpt lat="43.677747" lon="-79.336459"><time>2026-10-10T16:05:13Z</time></trkpt>
      <trkpt lat="43.677784" lon="-79.336405"><time>2026-10-10T16:05:14Z</time></trkpt>
      <trkpt lat="43.677821" lon="-79.336351"><time>2026-10-10T16:05:15Z</time></trkpt>
      <trkpt lat="43.677858" lon="-79.336297"><time>2026-10-10T16:05:16Z</time></trkpt>
      <trkpt lat="43.677895" lon="-79.336243"><time>2026-10-10T16:05:17Z</time></trkpt>
      <trkpt lat="43.677932" lon="-79.336189"><time>2026-10-10T16:05:18Z</time></trkpt>
      <trkpt lat="43.677970" lon="-79.336135"><time>2026-10-10T16:05:19Z</time></trkpt>
      <trkpt lat="43.678007" lon="-79.336081"><time>2026-10-10T16:05:20Z</time></trkpt>
      <trkpt lat="43.678044" lon="-79.336027"><time>2026-10-10T16:05:21Z</time></trkpt>
      <trkpt lat="43.678081" lon="-79.335973"><time>2026-10-10T16:05:22Z</time></trkpt>
      <trkpt lat="43.678118" lon="-79.335919"><time>2026-10-10T16:05:23Z</time></trkpt>
      <trkpt lat="43.678155" lon="-79.335865"><time>2026-10-10T16:05:24Z</time></trkpt>
      <trkpt lat="43.678193" lon="-79.335811"><time>2026-10-10T16:05:25Z</time></trkpt>
      <trkpt lat="43.678230" lon="-79.335757"><time>2026-10-10T16:05:26Z</time></trkpt>
      <trkpt lat="43.678267" lon="-79.335703"><time>2026-10-10T16:05:27Z</time></trkpt>
      <trkpt lat="43.678304" lon="-79.335649"><time>2026-10-10T16:05:28Z</time></trkpt>
      <trkpt lat="43.678341" lon="-79.335595"><time>2026-10-10T16:05:29Z</time></trkpt>
      <trkpt lat="43.678378" lon="-79.335541"><time>2026-10-10T16:05:30Z</time></trkpt>
      <trkpt lat="43.678416" lon="-79.335486"><time>2026-10-10T16:05:31Z</time></trkpt>
      <trkpt lat="43.678453" lon="-79.335432"><time>2026-10-10T16:05:32Z</time></trkpt>
      <trkpt lat="43.678490" lon="-79.335378"><time>2026-10-10T16:05:33Z</time></trkpt>
      <trkpt lat="43.678527" lon="-79.335324"><time>2026-10-10T16:05:34Z</time></trkpt>
      <trkpt lat="43.678564" lon="-79.335270"><time>2026-10-10T16:05:35Z</time></trkpt>
      <trkpt lat="43.678601" lon="-79.335216"><time>2026-10-10T16:05:36Z</time></trkpt>
      <trkpt lat="43.678639" lon="-79.335162"><time>2026-10-10T16:05:37Z</time></trkpt>
      <trkpt lat="43.678676" lon="-79.335108"><time>2026-10-10T16:05:38Z</time></trkpt>
      <trkpt lat="43.678713" lon="-79.335054"><time>2026-10-10T16:05:39Z</time></trkpt>
      <trkpt lat="43.678750" lon="-79.335000"><time>2026-10-10T16:05:40Z</time></trkpt>
      <trkpt lat="43.678787" lon="-79.334946"><time>2026-10-10T16:05:41Z</time></trkpt>
      <trkpt lat="43.678824" lon="-79.334892"><time>2026-10-10T16:05:42Z</time></trkpt>
      <trkpt lat="43.678861" lon="-79.334838"><time>2026-10-10T16:05:43Z</time></trkpt>
      <trkpt lat="43.678899" lon="-79.334784"><time>2026-10-10T16:05:44Z</time></trkpt>
      <trkpt lat="43.678936" lon="-79.334730"><time>2026-10-10T16:05:45Z</time></trkpt>
      <trkpt lat="43.678973" lon="-79.334676"><time>2026-10-10T16:05:46Z</time></trkpt>
      <trkpt lat="43.679010" lon="-79.334622"><time>2026-10-10T16:05:47Z</time></trkpt>
      <trkpt lat="43.679047" lon="-79.334568"><time>2026-10-10T16:05:48Z</time></trkpt>
      <trkpt lat="43.679084" lon="-79.334514"><time>2026-10-10T16:05:49Z</time></trkpt>
      <trkpt lat="43.679122" lon="-79.334459"><time>2026-10-10T16:05:50Z</time></trkpt>
      <trkpt lat="43.679159" lon="-79.334405"><time>2026-10-10T16:05:51Z</time></trkpt>
      <trkpt lat="43.679196" lon="-79.334351"><time>2026-10-10T16:05:52Z</time></trkpt>
      <trkpt lat="43.679233" lon="-79.334297"><time>2026-10-10T16:05:53Z</time></trkpt>
      <trkpt lat="43.679270" lon="-79.334243"><time>2026-10-10T16:05:54Z</time></trkpt>
      <trkpt lat="43.679307" lon="-79.334189"><time>2026-10-10T16:05:55Z</time></trkpt>
      <trkpt lat="43.679345" lon="-79.334135"><time>2026-10-10T16:05:56Z</time></trkpt>
      <trkpt lat="43.679382" lon="-79.334081"><time>2026-10-10T16:05:57Z</time></trkpt>
      <trkpt lat="43.679419" lon="-79.334027"><time>2026-10-10T16:05:58Z</time></trkpt>
      <trkpt lat="43.679456" lon="-79.333973"><time>2026-10-10T16:05:59Z</time></trkpt>
      <trkpt lat="43.679493" lon="-79.333919"><time>2026-10-10T16:06:00Z</time></trkpt>
      <trkpt lat="43.679530" lon="-79.333865"><time>2026-10-10T16:06:01Z</time></trkpt>
      <trkpt lat="43.679568" lon="-79.333811"><time>2026-10-10T16:06:02Z</time></trkpt>
      <trkpt lat="43.679605" lon="-79.333757"><time>2026-10-10T16:06:03Z</time></trkpt>
      <trkpt lat="43.679642" lon="-79.333703"><time>2026-10-10T16:06:04Z</time></trkpt>
      <trkpt lat="43.679679" lon="-79.333649"><time>2026-10-10T16:06:05Z</time></trkpt>
      <trkpt lat="43.679716" lon="-79.333595"><time>2026-10-10T16:06:06Z</time></trkpt>
      <trkpt lat="43.679753" lon="-79.333541"><time>2026-10-10T16:06:07Z</time></trkpt>
      <trkpt lat="43.679791" lon="-79.333486"><time>2026-10-10T16:06:08Z</time></trkpt>
      <trkpt lat="43.679828" lon="-79.333432"><time>2026-10-10T16:06:09Z</time></trkpt>
      <trkpt lat="43.679865" lon="-79.333378"><time>2026-10-10T16:06:10Z</time></trkpt>
      <trkpt lat="43.679902" lon="-79.333324"><time>2026-10-10T16:06:11Z</time></trkpt>
      <trkpt lat="43.679939" lon="-79.333270"><time>2026-10-10T16:06:12Z</time></trkpt>
      <trkpt lat="43.679976" lon="-79.333216"><time>2026-10-10T16:06:13Z</time></trkpt>
      <trkpt lat="43.680014" lon="-79.333162"><time>2026-10-10T16:06:14Z</time></trkpt>
      <trkpt lat="43.680051" lon="-79.333108"><time>2026-10-10T16:06:15Z</time></trkpt>
      <trkpt lat="43.680088" lon="-79.333054"><time>2026-10-10T16:06:16Z</time></trkpt>
      <trkpt lat="43.680125" lon="-79.333000"><time>2026-10-10T16:06:17Z</time></trkpt>
      <trkpt lat="43.680162" lon="-79.332946"><time>2026-10-10T16:06:18Z</time></trkpt>
      <trkpt lat="43.680199" lon="-79.332892"><time>2026-10-10T16:06:19Z</time></trkpt>
      <trkpt lat="43.680236" lon="-79.332838"><time>2026-10-10T16:06:20Z</time></trkpt>
      <trkpt lat="43.680274" lon="-79.332784"><time>2026-10-10T16:06:21Z</time></trkpt>
      <trkpt lat="43.680311" lon="-79.332730"><time>2026-10-10T16:06:22Z</time></trkpt>
      <trkpt lat="43.680348" lon="-79.332676"><time>2026-10-10T16:06:23Z</time></trkpt>
      <trkpt lat="43.680385" lon="-79.332622"><time>2026-10-10T16:06:24Z</time></trkpt>
      <trkpt lat="43.680422" lon="-79.332568"><time>2026-10-10T16:06:25Z</time></trkpt>
      <trkpt lat="43.680459" lon="-79.332514"><time>2026-10-10T16:06:26Z</time></trkpt>
      <trkpt lat="43.680497" lon="-79.332459"><time>2026-10-10T16:06:27Z</time></trkpt>
      <trkpt lat="43.680534" lon="-79.332405"><time>2026-10-10T16:06:28Z</time></trkpt>
      <trkpt lat="43.680571" lon="-79.332351"><time>2026-10-10T16:06:29Z</time></trkpt>
      <trkpt lat="43.680608" lon="-79.332297"><time>2026-10-10T16:06:30Z</time></trkpt>
      <trkpt lat="43.680645" lon="-79.332243"><time>2026-10-10T16:06:31Z</time></trkpt>
      <trkpt lat="43.680682" lon="-79.332189"><time>2026-10-10T16:06:32Z</time></trkpt>
      <trkpt lat="43.680720" lon="-79.332135"><time>2026-10-10T16:06:33Z</time></trkpt>
      <trkpt lat="43.680757" lon="-79.332081"><time>2026-10-10T16:06:34Z</time></trkpt>
      <trkpt lat="43.680794" lon="-79.332027"><time>2026-10-10T16:06:35Z</time></trkpt>
      <trkpt lat="43.680831" lon="-79.331973"><time>2026-10-10T16:06:36Z</time></trkpt>
      <trkpt lat="43.680868" lon="-79.331919"><time>2026-10-10T16:06:37Z</time></trkpt>
      <trkpt lat="43.680905" lon="-79.331865"><time>2026-10-10T16:06:38Z</time></trkpt>
      <trkpt lat="43.680943" lon="-79.331811"><time>2026-10-10T16:06:39Z</time></trkpt>
      <trkpt lat="43.680980" lon="-79.331757"><time>2026-10-10T16:06:40Z</time></trkpt>
      <trkpt lat="43.681017" lon="-79.331703"><time>2026-10-10T16:06:41Z</time></trkpt>
      <trkpt lat="43.681054" lon="-79.331649"><time>2026-10-10T16:06:42Z</time></trkpt>
      <trkpt lat="43.681091" lon="-79.331595"><time>2026-10-10T16:06:43Z</time></trkpt>
      <trkpt lat="43.681128" lon="-79.331541"><time>2026-10-10T16:06:44Z</time></trkpt>
      <trkpt lat="43.681166" lon="-79.331486"><time>2026-10-10T16:06:45Z</time></trkpt>
      <trkpt lat="43.681203" lon="-79.331432"><time>2026-10-10T16:06:46Z</time></trkpt>
      <trkpt lat="43.681240" lon="-79.331378"><time>2026-10-10T16:06:47Z</time></trkpt>
      <trkpt lat="43.681277" lon="-79.331324"><time>2026-10-10T16:06:48Z</time></trkpt>
      <trkpt lat="43.681314" lon="-79.331270"><time>2026-10-10T16:06:49Z</time></trkpt>
      <trkpt lat="43.681351" lon="-79.331216"><time>2026-10-10T16:06:50Z</time></trkpt>
      <trkpt lat="43.681389" lon="-79.331162"><time>2026-10-10T16:06:51Z</time></trkpt>
      <trkpt lat="43.681426" lon="-79.331108"><time>2026-10-10T16:06:52Z</time></trkpt>
      <trkpt lat="43.681463" lon="-79.331054"><time>2026-10-10T16:06:53Z</time></trkpt>
      <trkpt lat="43.681500" lon="-79.331000"><time>2026-10-10T16:06:54Z</time></trkpt>
      <trkpt lat="43.681500" lon="-79.331000"><time>2026-10-10T16:06:55Z</time></trkpt>
      <trkpt lat="43.681500" lon="-79.331000"><time>2026-10-10T16:06:56Z</time></trkpt>
      <trkpt lat="43.681500" lon="-79.331000"><time>2026-10-10T16:06:57Z</time></trkpt>
      <trkpt lat="43.681500" lon="-79.331000"><time>2026-10-10T16:06:58Z</time></trkpt>
      <trkpt lat="43.681500" lon="-79.331000"><time>2026-10-10T16:06:59Z</time></trkpt>
    </trkseg>
  </trk>
</gpx>
