<?xml version="1.0" encoding="UTF-8"?>
<!-- Generated by build-routes.mjs in this folder. Edit that file, not this one. -->
<gpx version="1.1" creator="hg-mono tools/e2e/native/routes/build-routes.mjs" xmlns="http://www.topografix.com/GPX/1/1">
  <metadata><name>rider-to-restaurant</name><desc>Pickup leg, the devworld short route: from 300 m north of Bismillah Grill (route.go shortStart) to its door, at about 5 m/s. About 70 s.</desc></metadata>
  <trk>
    <name>rider-to-restaurant</name>
    <trkseg>
      <trkpt lat="43.684200" lon="-79.331000"><time>2026-10-10T16:00:00Z</time></trkpt>
      <trkpt lat="43.684200" lon="-79.331000"><time>2026-10-10T16:00:01Z</time></trkpt>
      <trkpt lat="43.684200" lon="-79.331000"><time>2026-10-10T16:00:02Z</time></trkpt>
      <trkpt lat="43.684200" lon="-79.331000"><time>2026-10-10T16:00:03Z</time></trkpt>
      <trkpt lat="43.684155" lon="-79.331000"><time>2026-10-10T16:00:04Z</time></trkpt>
      <trkpt lat="43.684110" lon="-79.331000"><time>2026-10-10T16:00:05Z</time></trkpt>
      <trkpt lat="43.684065" lon="-79.331000"><time>2026-10-10T16:00:06Z</time></trkpt>
      <trkpt lat="43.684020" lon="-79.331000"><time>2026-10-10T16:00:07Z</time></trkpt>
      <trkpt lat="43.683975" lon="-79.331000"><time>2026-10-10T16:00:08Z</time></trkpt>
      <trkpt lat="43.683930" lon="-79.331000"><time>2026-10-10T16:00:09Z</time></trkpt>
      <trkpt lat="43.683885" lon="-79.331000"><time>2026-10-10T16:00:10Z</time></trkpt>
      <trkpt lat="43.683840" lon="-79.331000"><time>2026-10-10T16:00:11Z</time></trkpt>
      <trkpt lat="43.683795" lon="-79.331000"><time>2026-10-10T16:00:12Z</time></trkpt>
      <trkpt lat="43.683750" lon="-79.331000"><time>2026-10-10T16:00:13Z</time></trkpt>
      <trkpt lat="43.683705" lon="-79.331000"><time>2026-10-10T16:00:14Z</time></trkpt>
      <trkpt lat="43.683660" lon="-79.331000"><time>2026-10-10T16:00:15Z</time></trkpt>
      <trkpt lat="43.683615" lon="-79.331000"><time>2026-10-10T16:00:16Z</time></trkpt>
      <trkpt lat="43.683570" lon="-79.331000"><time>2026-10-10T16:00:17Z</time></trkpt>
      <trkpt lat="43.683525" lon="-79.331000"><time>2026-10-10T16:00:18Z</time></trkpt>
      <trkpt lat="43.683480" lon="-79.331000"><time>2026-10-10T16:00:19Z</time></trkpt>
      <trkpt lat="43.683435" lon="-79.331000"><time>2026-10-10T16:00:20Z</time></trkpt>
      <trkpt lat="43.683390" lon="-79.331000"><time>2026-10-10T16:00:21Z</time></trkpt>
      <trkpt lat="43.683345" lon="-79.331000"><time>2026-10-10T16:00:22Z</time></trkpt>
      <trkpt lat="43.683300" lon="-79.331000"><time>2026-10-10T16:00:23Z</time></trkpt>
      <trkpt lat="43.683255" lon="-79.331000"><time>2026-10-10T16:00:24Z</time></trkpt>
      <trkpt lat="43.683210" lon="-79.331000"><time>2026-10-10T16:00:25Z</time></trkpt>
      <trkpt lat="43.683165" lon="-79.331000"><time>2026-10-10T16:00:26Z</time></trkpt>
      <trkpt lat="43.683120" lon="-79.331000"><time>2026-10-10T16:00:27Z</time></trkpt>
      <trkpt lat="43.683075" lon="-79.331000"><time>2026-10-10T16:00:28Z</time></trkpt>
      <trkpt lat="43.683030" lon="-79.331000"><time>2026-10-10T16:00:29Z</time></trkpt>
      <trkpt lat="43.682985" lon="-79.331000"><time>2026-10-10T16:00:30Z</time></trkpt>
      <trkpt lat="43.682940" lon="-79.331000"><time>2026-10-10T16:00:31Z</time></trkpt>
      <trkpt lat="43.682895" lon="-79.331000"><time>2026-10-10T16:00:32Z</time></trkpt>
      <trkpt lat="43.682850" lon="-79.331000"><time>2026-10-10T16:00:33Z</time></trkpt>
      <trkpt lat="43.682805" lon="-79.331000"><time>2026-10-10T16:00:34Z</time></trkpt>
      <trkpt lat="43.682760" lon="-79.331000"><time>2026-10-10T16:00:35Z</time></trkpt>
      <trkpt lat="43.682715" lon="-79.331000"><time>2026-10-10T16:00:36Z</time></trkpt>
      <trkpt lat="43.682670" lon="-79.331000"><time>2026-10-10T16:00:37Z</time></trkpt>
      <trkpt lat="43.682625" lon="-79.331000"><time>2026-10-10T16:00:38Z</time></trkpt>
      <trkpt lat="43.682580" lon="-79.331000"><time>2026-10-10T16:00:39Z</time></trkpt>
      <trkpt lat="43.682535" lon="-79.331000"><time>2026-10-10T16:00:40Z</time></trkpt>
      <trkpt lat="43.682490" lon="-79.331000"><time>2026-10-10T16:00:41Z</time></trkpt>
      <trkpt lat="43.682445" lon="-79.331000"><time>2026-10-10T16:00:42Z</time></trkpt>
      <trkpt lat="43.682400" lon="-79.331000"><time>2026-10-10T16:00:43Z</time></trkpt>
      <trkpt lat="43.682355" lon="-79.331000"><time>2026-10-10T16:00:44Z</time></trkpt>
      <trkpt lat="43.682310" lon="-79.331000"><time>2026-10-10T16:00:45Z</time></trkpt>
      <trkpt lat="43.682265" lon="-79.331000"><time>2026-10-10T16:00:46Z</time></trkpt>
      <trkpt lat="43.682220" lon="-79.331000"><time>2026-10-10T16:00:47Z</time></trkpt>
      <trkpt lat="43.682175" lon="-79.331000"><time>2026-10-10T16:00:48Z</time></trkpt>
      <trkpt lat="43.682130" lon="-79.331000"><time>2026-10-10T16:00:49Z</time></trkpt>
      <trkpt lat="43.682085" lon="-79.331000"><time>2026-10-10T16:00:50Z</time></trkpt>
      <trkpt lat="43.682040" lon="-79.331000"><time>2026-10-10T16:00:51Z</time></trkpt>
      <trkpt lat="43.681995" lon="-79.331000"><time>2026-10-10T16:00:52Z</time></trkpt>
      <trkpt lat="43.681950" lon="-79.331000"><time>2026-10-10T16:00:53Z</time></trkpt>
      <trkpt lat="43.681905" lon="-79.331000"><time>2026-10-10T16:00:54Z</time></trkpt>
      <trkpt lat="43.681860" lon="-79.331000"><time>2026-10-10T16:00:55Z</time></trkpt>
      <trkpt lat="43.681815" lon="-79.331000"><time>2026-10-10T16:00:56Z</time></trkpt>
      <trkpt lat="43.681770" lon="-79.331000"><time>2026-10-10T16:00:57Z</time></trkpt>
      <trkpt lat="43.681725" lon="-79.331000"><time>2026-10-10T16:00:58Z</time></trkpt>
      <trkpt lat="43.681680" lon="-79.331000"><time>2026-10-10T16:00:59Z</time></trkpt>
      <trkpt lat="43.681635" lon="-79.331000"><time>2026-10-10T16:01:00Z</time></trkpt>
      <trkpt lat="43.681590" lon="-79.331000"><time>2026-10-10T16:01:01Z</time></trkpt>
      <trkpt lat="43.681545" lon="-79.331000"><time>2026-10-10T16:01:02Z</time></trkpt>
      <trkpt lat="43.681500" lon="-79.331000"><time>2026-10-10T16:01:03Z</time></trkpt>
      <trkpt lat="43.681500" lon="-79.331000"><time>2026-10-10T16:01:04Z</time></trkpt>
      <trkpt lat="43.681500" lon="-79.331000"><time>2026-10-10T16:01:05Z</time></trkpt>
      <trkpt lat="43.681500" lon="-79.331000"><time>2026-10-10T16:01:06Z</time></trkpt>
      <trkpt lat="43.681500" lon="-79.331000"><time>2026-10-10T16:01:07Z</time></trkpt>
      <trkpt lat="43.681500" lon="-79.331000"><time>2026-10-10T16:01:08Z</time></trkpt>
    </trkseg>
  </trk>
</gpx>
